[{"OBJECT_NAME":"ONEWEB-0640","OBJECT_ID":"2023-029J","EPOCH":"2025-09-09T05:21:49.333824","MEAN_MOTION":13.14503476,"ECCENTRICITY":0.00018017,"INCLINATION":87.9088,"RA_OF_ASC_NODE":345.6925,"ARG_OF_PERICENTER":77.4451,"MEAN_ANOMALY":282.688,"EPHEMERIS_TYPE":0,"CLASSIFICATION_TYPE":"U","NORAD_CAT_ID":55804,"ELEMENT_SET_NO":999,"REV_AT_EPOCH":12250,"BSTAR":-0.00027848408,"MEAN_MOTION_DOT":-9.0e-7,"MEAN_MOTION_DDOT":0},{"OBJECT_NAME":"ONEWEB-0641","OBJECT_ID":"2023-029K","EPOCH":"2025-09-09T06:39:42.284736","MEAN_MOTION":13.19727343,"ECCENTRICITY":0.00015626,"INCLINATION":87.9293,"RA_OF_ASC_NODE":0.8146,"ARG_OF_PERICENTER":100.062,"MEAN_ANOMALY":260.0689,"EPHEMERIS_TYPE":0,"CLASSIFICATION_TYPE":"U","NORAD_CAT_ID":55805,"ELEMENT_SET_NO":999,"REV_AT_EPOCH":12186,"BSTAR":7.7816217e-5,"MEAN_MOTION_DOT":4.4e-7,"MEAN_MOTION_DDOT":0},{"OBJECT_NAME":"ONEWEB-0642","OBJECT_ID":"2023-029L","EPOCH":"2025-09-09T06:32:53.933280","MEAN_MOTION":13.19724354,"ECCENTRICITY":9.332e-5,"INCLINATION":87.9278,"RA_OF_ASC_NODE":0.8498,"ARG_OF_PERICENTER":111.6504,"MEAN_ANOMALY":248.4728,"EPHEMERIS_TYPE":0,"CLASSIFICATION_TYPE":"U","NORAD_CAT_ID":55806,"ELEMENT_SET_NO":999,"REV_AT_EPOCH":12185,"BSTAR":0.0002327242,"MEAN_MOTION_DOT":1.06e-6,"MEAN_MOTION_DDOT":0},{"OBJECT_NAME":"ONEWEB-0643","OBJECT_ID":"2023-029M","EPOCH":"2025-09-09T06:28:01.705152","MEAN_MOTION":13.14504441,"ECCENTRICITY":0.00012966,"INCLINATION":87.9093,"RA_OF_ASC_NODE":345.6667,"ARG_OF_PERICENTER":120.8479,"MEAN_ANOMALY":239.2778,"EPHEMERIS_TYPE":0,"CLASSIFICATION_TYPE":"U","NORAD_CAT_ID":55807,"ELEMENT_SET_NO":999,"REV_AT_EPOCH":12248,"BSTAR":0.00030696509,"MEAN_MOTION_DOT":1.27e-6,"MEAN_MOTION_DDOT":0},{"OBJECT_NAME":"ONEWEB-0644","OBJECT_ID":"2023-029N","EPOCH":"2025-09-09T06:26:04.916544","MEAN_MOTION":13.19724058,"ECCENTRICITY":0.00013044,"INCLINATION":87.9282,"RA_OF_ASC_NODE":0.8582,"ARG_OF_PERICENTER":104.6544,"MEAN_ANOMALY":255.4733,"EPHEMERIS_TYPE":0,"CLASSIFICATION_TYPE":"U","NORAD_CAT_ID":55808,"ELEMENT_SET_NO":999,"REV_AT_EPOCH":12185,"BSTAR":0.00027013878,"MEAN_MOTION_DOT":1.21e-6,"MEAN_MOTION_DDOT":0},{"OBJECT_NAME":"ONEWEB-0645","OBJECT_ID":"2023-029P","EPOCH":"2025-09-09T06:20:23.851680","MEAN_MOTION":13.1972694,"ECCENTRICITY":0.00016045,"INCLINATION":87.9274,"RA_OF_ASC_NODE":0.8453,"ARG_OF_PERICENTER":90.7174,"MEAN_ANOMALY":269.4143,"EPHEMERIS_TYPE":0,"CLASSIFICATION_TYPE":"U","NORAD_CAT_ID":55809,"ELEMENT_SET_NO":999,"REV_AT_EPOCH":12185,"BSTAR":0.00029813972,"MEAN_MOTION_DOT":1.32e-6,"MEAN_MOTION_DDOT":0},{"OBJECT_NAME":"ONEWEB-0646","OBJECT_ID":"2023-029Q","EPOCH":"2025-09-09T05:30:51.372864","MEAN_MOTION":13.19256641,"ECCENTRICITY":0.00015933,"INCLINATION":87.9274,"RA_OF_ASC_NODE":0.8492,"ARG_OF_PERICENTER":104.4151,"MEAN_ANOMALY":255.7159,"EPHEMERIS_TYPE":0,"CLASSIFICATION_TYPE":"U","NORAD_CAT_ID":55810,"ELEMENT_SET_NO":999,"REV_AT_EPOCH":12183,"BSTAR":0.00021515971,"MEAN_MOTION_DOT":9.8e-7,"MEAN_MOTION_DDOT":0},{"OBJECT_NAME":"ONEWEB-0648","OBJECT_ID":"2023-029R","EPOCH":"2025-09-09T05:42:20.823264","MEAN_MOTION":13.14509502,"ECCENTRICITY":9.731e-5,"INCLINATION":87.9077,"RA_OF_ASC_NODE":345.6443,"ARG_OF_PERICENTER":81.7215,"MEAN_ANOMALY":278.4025,"EPHEMERIS_TYPE":0,"CLASSIFICATION_TYPE":"U","NORAD_CAT_ID":55811,"ELEMENT_SET_NO":999,"REV_AT_EPOCH":12248,"BSTAR":-0.0051437708,"MEAN_MOTION_DOT":-1.894e-5,"MEAN_MOTION_DDOT":0},{"OBJECT_NAME":"ONEWEB-0649","OBJECT_ID":"2023-029S","EPOCH":"2025-09-09T06:10:09.945120","MEAN_MOTION":13.19725622,"ECCENTRICITY":0.00013632,"INCLINATION":87.9286,"RA_OF_ASC_NODE":0.8358,"ARG_OF_PERICENTER":94.151,"MEAN_ANOMALY":265.9778,"EPHEMERIS_TYPE":0,"CLASSIFICATION_TYPE":"U","NORAD_CAT_ID":55812,"ELEMENT_SET_NO":999,"REV_AT_EPOCH":12187,"BSTAR":0.00030225834,"MEAN_MOTION_DOT":1.34e-6,"MEAN_MOTION_DDOT":0},{"OBJECT_NAME":"ONEWEB-0650","OBJECT_ID":"2023-029T","EPOCH":"2025-09-09T06:03:20.295072","MEAN_MOTION":13.19726641,"ECCENTRICITY":0.00015878,"INCLINATION":87.9281,"RA_OF_ASC_NODE":0.8471,"ARG_OF_PERICENTER":101.2797,"MEAN_ANOMALY":258.8514,"EPHEMERIS_TYPE":0,"CLASSIFICATION_TYPE":"U","NORAD_CAT_ID":55813,"ELEMENT_SET_NO":999,"REV_AT_EPOCH":12184,"BSTAR":0.00019932577,"MEAN_MOTION_DOT":9.3e-7,"MEAN_MOTION_DDOT":0},{"OBJECT_NAME":"ONEWEB-0652","OBJECT_ID":"2023-029U","EPOCH":"2025-09-09T05:14:58.258176","MEAN_MOTION":13.14504175,"ECCENTRICITY":0.00020145,"INCLINATION":87.9089,"RA_OF_ASC_NODE":345.6626,"ARG_OF_PERICENTER":100.6782,"MEAN_ANOMALY":259.4575,"EPHEMERIS_TYPE":0,"CLASSIFICATION_TYPE":"U","NORAD_CAT_ID":55814,"ELEMENT_SET_NO":999,"REV_AT_EPOCH":12245,"BSTAR":-0.00027141988,"MEAN_MOTION_DOT":-8.8e-7,"MEAN_MOTION_DDOT":0},{"OBJECT_NAME":"ONEWEB-0653","OBJECT_ID":"2023-029V","EPOCH":"2025-09-09T06:41:44.335104","MEAN_MOTION":13.14505389,"ECCENTRICITY":0.00019634,"INCLINATION":87.9093,"RA_OF_ASC_NODE":345.6398,"ARG_OF_PERICENTER":94.58,"MEAN_ANOMALY":265.5554,"EPHEMERIS_TYPE":0,"CLASSIFICATION_TYPE":"U","NORAD_CAT_ID":55815,"ELEMENT_SET_NO":999,"REV_AT_EPOCH":12249,"BSTAR":-0.00025054564,"MEAN_MOTION_DOT":-8.0e-7,"MEAN_MOTION_DDOT":0},{"OBJECT_NAME":"ONEWEB-0654","OBJECT_ID":"2023-029W","EPOCH":"2025-09-09T06:34:52.503456","MEAN_MOTION":13.14501828,"ECCENTRICITY":0.0002214,"INCLINATION":87.9094,"RA_OF_ASC_NODE":345.639,"ARG_OF_PERICENTER":98.9641,"MEAN_ANOMALY":261.1739,"EPHEMERIS_TYPE":0,"CLASSIFICATION_TYPE":"U","NORAD_CAT_ID":55816,"ELEMENT_SET_NO":999,"REV_AT_EPOCH":12251,"BSTAR":2.0359659e-5,"MEAN_MOTION_DOT":2.0e-7,"MEAN_MOTION_DDOT":0},{"OBJECT_NAME":"ONEWEB-0656","OBJECT_ID":"2023-029X","EPOCH":"2025-09-09T05:19:52.915872","MEAN_MOTION":13.20772978,"ECCENTRICITY":0.00023606,"INCLINATION":87.9289,"RA_OF_ASC_NODE":330.4332,"ARG_OF_PERICENTER":97.5799,"MEAN_ANOMALY":262.5603,"EPHEMERIS_TYPE":0,"CLASSIFICATION_TYPE":"U","NORAD_CAT_ID":55817,"ELEMENT_SET_NO":999,"REV_AT_EPOCH":12406,"BSTAR":0.00029780871,"MEAN_MOTION_DOT":1.34e-6,"MEAN_MOTION_DDOT":0},{"OBJECT_NAME":"ONEWEB-0657","OBJECT_ID":"2023-029Y","EPOCH":"2025-09-09T05:56:31.354368","MEAN_MOTION":13.19727316,"ECCENTRICITY":0.00023246,"INCLINATION":87.928,"RA_OF_ASC_NODE":0.8528,"ARG_OF_PERICENTER":116.8155,"MEAN_ANOMALY":243.3216,"EPHEMERIS_TYPE":0,"CLASSIFICATION_TYPE":"U","NORAD_CAT_ID":55818,"ELEMENT_SET_NO":999,"REV_AT_EPOCH":12185,"BSTAR":0.00039980374,"MEAN_MOTION_DOT":1.73e-6,"MEAN_MOTION_DDOT":0},{"OBJECT_NAME":"ONEWEB-0658","OBJECT_ID":"2023-029Z","EPOCH":"2025-09-09T05:49:41.922048","MEAN_MOTION":13.19725903,"ECCENTRICITY":0.00013338,"INCLINATION":87.9296,"RA_OF_ASC_NODE":0.7911,"ARG_OF_PERICENTER":104.6063,"MEAN_ANOMALY":255.5218,"EPHEMERIS_TYPE":0,"CLASSIFICATION_TYPE":"U","NORAD_CAT_ID":55819,"ELEMENT_SET_NO":999,"REV_AT_EPOCH":12186,"BSTAR":0.00034011749,"MEAN_MOTION_DOT":1.49e-6,"MEAN_MOTION_DDOT":0},{"OBJECT_NAME":"ONEWEB-0660","OBJECT_ID":"2023-029AA","EPOCH":"2025-09-09T06:02:55.296960","MEAN_MOTION":13.1450491,"ECCENTRICITY":0.00016514,"INCLINATION":87.9098,"RA_OF_ASC_NODE":345.616,"ARG_OF_PERICENTER":90.2248,"MEAN_ANOMALY":269.9071,"EPHEMERIS_TYPE":0,"CLASSIFICATION_TYPE":"U","NORAD_CAT_ID":55820,"ELEMENT_SET_NO":999,"REV_AT_EPOCH":12249,"BSTAR":0.0008228766,"MEAN_MOTION_DOT":3.18e-6,"MEAN_MOTION_DDOT":0}]
