ONEWEB-0640             
1 55804U 23029J   25252.22348766 -.00000090  00000+0 -27848-3 0  9994
2 55804  87.9088 345.6925 0001801  77.4451 282.6880 13.14503476122504
ONEWEB-0641             
1 55805U 23029K   25252.27757274  .00000044  00000+0  77816-4 0  9996
2 55805  87.9293   0.8146 0001562 100.0620 260.0689 13.19727343121864
ONEWEB-0642             
1 55806U 23029L   25252.27284645  .00000106  00000+0  23272-3 0  9999
2 55806  87.9278   0.8498 0000933 111.6504 248.4728 13.19724354121850
ONEWEB-0643             
1 55807U 23029M   25252.26946418  .00000127  00000+0  30697-3 0  9994
2 55807  87.9093 345.6667 0001296 120.8479 239.2778 13.14504441122481
ONEWEB-0644             
1 55808U 23029N   25252.26811246  .00000121  00000+0  27014-3 0  9998
2 55808  87.9282   0.8582 0001304 104.6544 255.4733 13.19724058121855
ONEWEB-0645             
1 55809U 23029P   25252.26416495  .00000132  00000+0  29814-3 0  9998
2 55809  87.9274   0.8453 0001604  90.7174 269.4143 13.19726940121853
ONEWEB-0646             
1 55810U 23029Q   25252.22976126  .00000098  00000+0  21516-3 0  9990
2 55810  87.9274   0.8492 0001593 104.4151 255.7159 13.19256641121832
ONEWEB-0648             
1 55811U 23029R   25252.23774101 -.00001894  00000+0 -51438-2 0  9993
2 55811  87.9077 345.6443 0000973  81.7215 278.4025 13.14509502122487
ONEWEB-0649             
1 55812U 23029S   25252.25705955  .00000134  00000+0  30226-3 0  9994
2 55812  87.9286   0.8358 0001363  94.1510 265.9778 13.19725622121871
ONEWEB-0650             
1 55813U 23029T   25252.25231823  .00000093  00000+0  19933-3 0  9999
2 55813  87.9281   0.8471 0001587 101.2797 258.8514 13.19726641121846
ONEWEB-0652             
1 55814U 23029U   25252.21872984 -.00000088  00000+0 -27142-3 0  9992
2 55814  87.9089 345.6626 0002014 100.6782 259.4575 13.14504175122451
ONEWEB-0653             
1 55815U 23029V   25252.27898536 -.00000080  00000+0 -25055-3 0  9993
2 55815  87.9093 345.6398 0001963  94.5800 265.5554 13.14505389122494
ONEWEB-0654             
1 55816U 23029W   25252.27421879  .00000020  00000+0  20360-4 0  9993
2 55816  87.9094 345.6390 0002214  98.9641 261.1739 13.14501828122513
ONEWEB-0656             
1 55817U 23029X   25252.22214023  .00000134  00000+0  29781-3 0  9991
2 55817  87.9289 330.4332 0002360  97.5799 262.5603 13.20772978124069
ONEWEB-0657             
1 55818U 23029Y   25252.24758512  .00000173  00000+0  39980-3 0  9995
2 55818  87.9280   0.8528 0002324 116.8155 243.3216 13.19727316121852
ONEWEB-0658             
1 55819U 23029Z   25252.24284632  .00000149  00000+0  34012-3 0  9997
2 55819  87.9296   0.7911 0001333 104.6063 255.5218 13.19725903121865
ONEWEB-0660             
1 55820U 23029AA  25252.25202890  .00000318  00000+0  82288-3 0  9992
2 55820  87.9098 345.6160 0001651  90.2248 269.9071 13.14504910122496
